ONEWEB-0281             
1 48999U 21060AJ  24008.61002473 -.00004862  00000+0 -12741-1 0  9992
2 48999  87.9041  46.0141 0002285 118.5386 241.5975 13.16692768123755
ONEWEB-0282             
1 49000U 21060AK  24008.64004815  .00000023  00000+0  26246-4 0  9992
2 49000  87.9056  46.0263 0002240  97.6848 262.4537 13.16595261122420
ONEWEB-0283             
1 49001U 21060AL  24008.55302582 -.00002698  00000+0 -70798-2 0  9996
2 49001  87.9050  46.0526 0001494  67.9905 292.1385 13.16712928123749
ONEWEB-0284             
1 49002U 21060AM  24008.62269276 -.00006241  00000+0 -16348-1 0  9995
2 49002  87.9042  46.0319 0002025  91.5087 268.6276 13.16691645122418
ONEWEB-0285             
1 49075U 21075A   24008.91607475 -.00000314  00000+0 -90847-3 0  9993
2 49075  87.9012 167.7703 0001556  96.0540 264.0765 13.12442188118437
ONEWEB-0286             
1 49076U 21075B   24008.88733946  .00000445  00000+0  12012-2 0  9993
2 49076  87.9008 167.7842 0001191  88.2629 271.8636 13.12441623117786
ONEWEB-0287             
1 49077U 21075C   24008.89152731  .00000045  00000+0  83033-4 0  9991
2 49077  87.9206 182.8847 0001629  78.0913 282.0401 13.17648114116387
ONEWEB-0288             
1 49078U 21075D   24008.94769695  .00000138  00000+0  34726-3 0  9998
2 49078  87.9007 167.7760 0001569  90.1074 270.0235 13.12442794118418
